{"fetched_at":"2026-07-13T07:47:52.862Z","source":"https://celestrak.org/NORAD/elements/gp.php?GROUP=kuiper&FORMAT=JSON","constellation":"kuiper","records":[{"OBJECT_NAME":"KUIPER-00500","OBJECT_ID":"2026-095U","EPOCH":"2026-07-12T05:15:19.763136","CLASSIFICATION_TYPE":"U","MEAN_MOTION":14.79922545,"ECCENTRICITY":0.0001244,"INCLINATION":51.901,"RA_OF_ASC_NODE":139.966,"ARG_OF_PERICENTER":27.3697,"MEAN_ANOMALY":332.7331,"EPHEMERIS_TYPE":0,"NORAD_CAT_ID":68882,"ELEMENT_SET_NO":999,"REV_AT_EPOCH":1132,"BSTAR":0.00026083,"MEAN_MOTION_DOT":0.00001767,"MEAN_MOTION_DDOT":0},{"OBJECT_NAME":"KUIPER-00502","OBJECT_ID":"2026-095V","EPOCH":"2026-07-12T20:00:01.999008","CLASSIFICATION_TYPE":"U","MEAN_MOTION":15.30788109,"ECCENTRICITY":0.0006971,"INCLINATION":51.8803,"RA_OF_ASC_NODE":118.2597,"ARG_OF_PERICENTER":38.6362,"MEAN_ANOMALY":52.2389,"EPHEMERIS_TYPE":0,"NORAD_CAT_ID":68883,"ELEMENT_SET_NO":999,"REV_AT_EPOCH":526,"BSTAR":-0.043407,"MEAN_MOTION_DOT":-0.01191548,"MEAN_MOTION_DDOT":0},{"OBJECT_NAME":"KUIPER-00503","OBJECT_ID":"2026-095W","EPOCH":"2026-07-12T06:07:51.141792","CLASSIFICATION_TYPE":"U","MEAN_MOTION":14.79919427,"ECCENTRICITY":0.0000462,"INCLINATION":51.9001,"RA_OF_ASC_NODE":137.2943,"ARG_OF_PERICENTER":153.7599,"MEAN_ANOMALY":206.3387,"EPHEMERIS_TYPE":0,"NORAD_CAT_ID":68884,"ELEMENT_SET_NO":999,"REV_AT_EPOCH":1136,"BSTAR":0.00024119,"MEAN_MOTION_DOT":0.00001617,"MEAN_MOTION_DDOT":0},{"OBJECT_NAME":"KUIPER-00504","OBJECT_ID":"2026-095X","EPOCH":"2026-07-12T05:07:34.135392","CLASSIFICATION_TYPE":"U","MEAN_MOTION":14.79927351,"ECCENTRICITY":0.0000811,"INCLINATION":51.8997,"RA_OF_ASC_NODE":144.9902,"ARG_OF_PERICENTER":64.8933,"MEAN_ANOMALY":295.2113,"EPHEMERIS_TYPE":0,"NORAD_CAT_ID":68885,"ELEMENT_SET_NO":999,"REV_AT_EPOCH":1125,"BSTAR":-0.00014646,"MEAN_MOTION_DOT":-0.00001337,"MEAN_MOTION_DDOT":0},{"OBJECT_NAME":"KUIPER-00505","OBJECT_ID":"2026-095Y","EPOCH":"2026-07-12T20:46:53.914656","CLASSIFICATION_TYPE":"U","MEAN_MOTION":14.79938277,"ECCENTRICITY":0.0000527,"INCLINATION":51.898,"RA_OF_ASC_NODE":132.1077,"ARG_OF_PERICENTER":86.4421,"MEAN_ANOMALY":273.6601,"EPHEMERIS_TYPE":0,"NORAD_CAT_ID":68886,"ELEMENT_SET_NO":999,"REV_AT_EPOCH":1148,"BSTAR":0.000021473,"MEAN_MOTION_DOT":-5.7e-7,"MEAN_MOTION_DDOT":0},{"OBJECT_NAME":"KUIPER-00507","OBJECT_ID":"2026-095Z","EPOCH":"2026-07-12T20:00:01.999008","CLASSIFICATION_TYPE":"U","MEAN_MOTION":14.89618303,"ECCENTRICITY":0.0001654,"INCLINATION":51.8962,"RA_OF_ASC_NODE":122.2042,"ARG_OF_PERICENTER":143.7767,"MEAN_ANOMALY":107.713,"EPHEMERIS_TYPE":0,"NORAD_CAT_ID":68887,"ELEMENT_SET_NO":999,"REV_AT_EPOCH":505,"BSTAR":-0.0027249,"MEAN_MOTION_DOT":-0.00026433,"MEAN_MOTION_DDOT":0},{"OBJECT_NAME":"KUIPER-00511","OBJECT_ID":"2026-095AA","EPOCH":"2026-07-12T20:00:01.999008","CLASSIFICATION_TYPE":"U","MEAN_MOTION":15.26094585,"ECCENTRICITY":0.0005905,"INCLINATION":51.8837,"RA_OF_ASC_NODE":118.5754,"ARG_OF_PERICENTER":37.5585,"MEAN_ANOMALY":230.265,"EPHEMERIS_TYPE":0,"NORAD_CAT_ID":68888,"ELEMENT_SET_NO":999,"REV_AT_EPOCH":567,"BSTAR":-0.034697,"MEAN_MOTION_DOT":-0.00837901,"MEAN_MOTION_DDOT":0},{"OBJECT_NAME":"KUIPER-00512","OBJECT_ID":"2026-095AB","EPOCH":"2026-07-12T05:19:12.512640","CLASSIFICATION_TYPE":"U","MEAN_MOTION":14.79920703,"ECCENTRICITY":0.0001262,"INCLINATION":51.8966,"RA_OF_ASC_NODE":137.4567,"ARG_OF_PERICENTER":99.2399,"MEAN_ANOMALY":260.8707,"EPHEMERIS_TYPE":0,"NORAD_CAT_ID":68889,"ELEMENT_SET_NO":999,"REV_AT_EPOCH":1135,"BSTAR":-0.0000069866,"MEAN_MOTION_DOT":-0.00000275,"MEAN_MOTION_DDOT":0},{"OBJECT_NAME":"KUIPER-00519","OBJECT_ID":"2026-095AC","EPOCH":"2026-07-12T20:00:01.999008","CLASSIFICATION_TYPE":"U","MEAN_MOTION":14.80036671,"ECCENTRICITY":0.0000994,"INCLINATION":51.9017,"RA_OF_ASC_NODE":124.8137,"ARG_OF_PERICENTER":320.042,"MEAN_ANOMALY":2.6941,"EPHEMERIS_TYPE":0,"NORAD_CAT_ID":68890,"ELEMENT_SET_NO":999,"REV_AT_EPOCH":523,"BSTAR":-0.0031336,"MEAN_MOTION_DOT":-0.00024084,"MEAN_MOTION_DDOT":0},{"OBJECT_NAME":"KUIPER-00521","OBJECT_ID":"2026-095AD","EPOCH":"2026-07-12T20:00:01.999008","CLASSIFICATION_TYPE":"U","MEAN_MOTION":15.05326101,"ECCENTRICITY":0.000025,"INCLINATION":51.9023,"RA_OF_ASC_NODE":119.7555,"ARG_OF_PERICENTER":153.1372,"MEAN_ANOMALY":273.4283,"EPHEMERIS_TYPE":0,"NORAD_CAT_ID":68891,"ELEMENT_SET_NO":999,"REV_AT_EPOCH":419,"BSTAR":-0.0055688,"MEAN_MOTION_DOT":-0.00080007,"MEAN_MOTION_DDOT":0},{"OBJECT_NAME":"KUIPER-00524","OBJECT_ID":"2026-095AE","EPOCH":"2026-07-12T20:00:01.999008","CLASSIFICATION_TYPE":"U","MEAN_MOTION":14.76415853,"ECCENTRICITY":0.0002375,"INCLINATION":51.8975,"RA_OF_ASC_NODE":126.0064,"ARG_OF_PERICENTER":100.8721,"MEAN_ANOMALY":340.5765,"EPHEMERIS_TYPE":0,"NORAD_CAT_ID":68892,"ELEMENT_SET_NO":999,"REV_AT_EPOCH":468,"BSTAR":0.0014524,"MEAN_MOTION_DOT":0.0000999,"MEAN_MOTION_DDOT":0},{"OBJECT_NAME":"KUIPER-00370","OBJECT_ID":"2026-098A","EPOCH":"2026-07-12T20:00:01.999008","CLASSIFICATION_TYPE":"U","MEAN_MOTION":15.18403228,"ECCENTRICITY":0.0012271,"INCLINATION":51.8769,"RA_OF_ASC_NODE":307.2056,"ARG_OF_PERICENTER":254.5887,"MEAN_ANOMALY":165.8404,"EPHEMERIS_TYPE":0,"NORAD_CAT_ID":68919,"ELEMENT_SET_NO":999,"REV_AT_EPOCH":456,"BSTAR":-0.054675,"MEAN_MOTION_DOT":-0.01047776,"MEAN_MOTION_DDOT":0},{"OBJECT_NAME":"KUIPER-00380","OBJECT_ID":"2026-098B","EPOCH":"2026-07-12T13:18:26.749728","CLASSIFICATION_TYPE":"U","MEAN_MOTION":15.29509574,"ECCENTRICITY":0.0006921,"INCLINATION":51.8752,"RA_OF_ASC_NODE":306.9735,"ARG_OF_PERICENTER":248.2444,"MEAN_ANOMALY":111.7803,"EPHEMERIS_TYPE":0,"NORAD_CAT_ID":68920,"ELEMENT_SET_NO":999,"REV_AT_EPOCH":1122,"BSTAR":0.00034567,"MEAN_MOTION_DOT":0.0000969,"MEAN_MOTION_DDOT":0},{"OBJECT_NAME":"KUIPER-00386","OBJECT_ID":"2026-098C","EPOCH":"2026-07-12T20:00:01.999008","CLASSIFICATION_TYPE":"U","MEAN_MOTION":15.28876664,"ECCENTRICITY":0.0003023,"INCLINATION":51.8775,"RA_OF_ASC_NODE":303.8541,"ARG_OF_PERICENTER":342.3856,"MEAN_ANOMALY":283.6837,"EPHEMERIS_TYPE":0,"NORAD_CAT_ID":68921,"ELEMENT_SET_NO":999,"REV_AT_EPOCH":539,"BSTAR":0.00035283,"MEAN_MOTION_DOT":0.00009699,"MEAN_MOTION_DDOT":0},{"OBJECT_NAME":"KUIPER-00388","OBJECT_ID":"2026-098D","EPOCH":"2026-07-12T20:00:01.999008","CLASSIFICATION_TYPE":"U","MEAN_MOTION":14.86940621,"ECCENTRICITY":0.0020323,"INCLINATION":51.8974,"RA_OF_ASC_NODE":309.6794,"ARG_OF_PERICENTER":242.1128,"MEAN_ANOMALY":283.7735,"EPHEMERIS_TYPE":0,"NORAD_CAT_ID":68922,"ELEMENT_SET_NO":999,"REV_AT_EPOCH":579,"BSTAR":0.00023855,"MEAN_MOTION_DOT":0.00001922,"MEAN_MOTION_DDOT":0},{"OBJECT_NAME":"KUIPER-00405","OBJECT_ID":"2026-098E","EPOCH":"2026-07-12T20:00:01.999008","CLASSIFICATION_TYPE":"U","MEAN_MOTION":15.00241854,"ECCENTRICITY":0.000658,"INCLINATION":51.889,"RA_OF_ASC_NODE":307.9612,"ARG_OF_PERICENTER":262.0728,"MEAN_ANOMALY":71.7406,"EPHEMERIS_TYPE":0,"NORAD_CAT_ID":68923,"ELEMENT_SET_NO":999,"REV_AT_EPOCH":442,"BSTAR":-0.0026943,"MEAN_MOTION_DOT":-0.0003421,"MEAN_MOTION_DDOT":0}]}
