KUIPER-00500            
1 68882U 26095U   26193.21897874  .00001767  00000+0  26083-3 0  9993
2 68882  51.9010 139.9660 0001244  27.3697 332.7331 14.79922545 11326
KUIPER-00502            
1 68883U 26095V   26193.83335647 -.01191548  00000+0 -43407-1 0  9994
2 68883  51.8803 118.2597 0006971  38.6362  52.2389 15.30788109  5268
KUIPER-00503            
1 68884U 26095W   26193.25545303  .00001617  00000+0  24119-3 0  9998
2 68884  51.9001 137.2943 0000462 153.7599 206.3387 14.79919427 11365
KUIPER-00504            
1 68885U 26095X   26193.21358953 -.00001337  00000+0 -14646-3 0  9993
2 68885  51.8997 144.9902 0000811  64.8933 295.2113 14.79927351 11258
KUIPER-00505            
1 68886U 26095Y   26193.86590179 -.00000057  00000+0  21473-4 0  9997
2 68886  51.8980 132.1077 0000527  86.4421 273.6601 14.79938277 11485
KUIPER-00507            
1 68887U 26095Z   26193.83335647 -.00026433  00000+0 -27249-2 0  9994
2 68887  51.8962 122.2042 0001654 143.7767 107.7130 14.89618303  5056
KUIPER-00511            
1 68888U 26095AA  26193.83335647 -.00837901  00000+0 -34697-1 0  9999
2 68888  51.8837 118.5754 0005905  37.5585 230.2650 15.26094585  5676
KUIPER-00512            
1 68889U 26095AB  26193.22167260 -.00000275  00000+0 -69866-5 0  9993
2 68889  51.8966 137.4567 0001262  99.2399 260.8707 14.79920703 11353
KUIPER-00519            
1 68890U 26095AC  26193.83335647 -.00024084  00000+0 -31336-2 0  9990
2 68890  51.9017 124.8137 0000994 320.0420   2.6941 14.80036671  5233
KUIPER-00521            
1 68891U 26095AD  26193.83335647 -.00080007  00000+0 -55688-2 0  9994
2 68891  51.9023 119.7555 0000250 153.1372 273.4283 15.05326101  4193
KUIPER-00524            
1 68892U 26095AE  26193.83335647  .00009990  00000+0  14524-2 0  9999
2 68892  51.8975 126.0064 0002375 100.8721 340.5765 14.76415853  4687
KUIPER-00370            
1 68919U 26098A   26193.83335647 -.01047776  00000+0 -54675-1 0  9999
2 68919  51.8769 307.2056 0012271 254.5887 165.8404 15.18403228  4563
KUIPER-00380            
1 68920U 26098B   26193.55447627  .00009690  00000+0  34567-3 0  9992
2 68920  51.8752 306.9735 0006921 248.2444 111.7803 15.29509574 11228
KUIPER-00386            
1 68921U 26098C   26193.83335647  .00009699  00000+0  35283-3 0  9997
2 68921  51.8775 303.8541 0003023 342.3856 283.6837 15.28876664  5391
KUIPER-00388            
1 68922U 26098D   26193.83335647  .00001922  00000+0  23855-3 0  9991
2 68922  51.8974 309.6794 0020323 242.1128 283.7735 14.86940621  5798
KUIPER-00405            
1 68923U 26098E   26193.83335647 -.00034210  00000+0 -26943-2 0  9990
2 68923  51.8890 307.9612 0006580 262.0728  71.7406 15.00241854  4420
